NOAA 15                 
1 25338U 98030A   22198.51805956  .00000178  00000+0  92432-4 0  9991
2 25338  98.6423 227.6580 0009894 203.9058 156.1664 14.26151175257558
DMSP 5D-3 F15 (USA 147) 
1 25991U 99067A   22198.57304748  .00000116  00000+0  81248-4 0  9991
2 25991  99.0532 190.6648 0011194 101.8954   0.9851 14.16552997168056
METEOSAT-8 (MSG-1)      
1 27509U 02040B   22198.21880019  .00000121  00000+0  00000+0 0  9992
2 27509   8.0913  50.5019 0000356  56.1802 308.4552  1.00269906 72900
DMSP 5D-3 F16 (USA 172) 
1 28054U 03048A   22198.55482521 -.00000009  00000+0  19270-4 0  9990
2 28054  98.9888 189.5215 0006430 227.2222 298.3784 14.13676323967283
NOAA 18                 
1 28654U 05018A   22198.51859438  .00000164  00000+0  11238-3 0  9992
2 28654  98.9482 268.9295 0013333 244.2895 115.6901 14.12754191884227
METEOSAT-9 (MSG-2)      
1 28912U 05049B   22198.21967220  .00000113  00000+0  00000+0 0  9994
2 28912   6.0851  66.1238 0001596  10.0246 343.7118  1.00277667 60687
EWS-G1 (GOES 13)        
1 29155U 06018A   22198.50968990  .00000027  00000+0  00000+0 0  9992
2 29155   0.6740  96.8195 0004325  85.8678 357.2444  1.00273084 29033
DMSP 5D-3 F17 (USA 191) 
1 29522U 06050A   22198.50245503  .00000009  00000+0  27338-4 0  9992
2 29522  98.7659 212.9938 0009988 169.3348 190.8039 14.14103304810154
FENGYUN 3A              
1 32958U 08026A   22198.51171325  .00000069  00000+0  53498-4 0  9997
2 32958  98.5039 159.9180 0007758 301.0747  58.9668 14.18727976732483
FENGYUN 2E              
1 33463U 08066A   22198.58655661 -.00000219  00000+0  00000+0 0  9994
2 33463   5.9706  65.1411 0003063  11.9508 156.1475  1.00275211 49744
NOAA 19                 
1 33591U 09005A   22198.59415884  .00000162  00000+0  11265-3 0  9997
2 33591  99.1460 233.3614 0014963 102.9697 257.3145 14.12588768692702
GOES 14                 
1 35491U 09033A   22198.52479904 -.00000103  00000+0  00000+0 0  9992
2 35491   0.3885  95.1181 0013495 114.9490 169.5401  1.00272438 47760
METEOR-M 1              
1 35865U 09049A   22198.50434251  .00000074  00000+0  52169-4 0  9992
2 35865  98.5295 168.0079 0003166 121.7345 238.4142 14.22344628665969
DMSP 5D-3 F18 (USA 210) 
1 35951U 09057A   22198.55903035  .00000201  00000+0  12951-3 0  9999
2 35951  98.7233 177.2053 0011306   7.7791 352.3555 14.13526443657362
GOES 15                 
1 36411U 10008A   22198.54374122  .00000043  00000+0  00000+0 0  9999
2 36411   0.3608 100.8508 0002506  31.8593 230.0015  1.00275862 45324
COMS 1                  
1 36744U 10032A   22198.56716076 -.00000357  00000+0  00000+0 0  9994
2 36744   1.1491  92.4543 0001019  31.4747 143.7314  1.00271959 36743
FENGYUN 3B              
1 37214U 10059A   22198.41936119 -.00000005  00000+0  21443-4 0  9991
2 37214  99.0915 204.9240 0021192 271.0419  88.8338 14.14259745605193
SUOMI NPP               
1 37849U 11061A   22198.60102785  .00000067  00000+0  52670-4 0  9997
2 37849  98.7329 136.7365 0001124  89.4014  84.1942 14.19533819555474
FENGYUN 2F              
1 38049U 12002A   22197.58710672 -.00000370  00000+0  00000+0 0  9995
2 38049   3.8607  79.4808 0002206  12.3052 165.9047  1.00263646 38538
METEOSAT-10 (MSG-3)     
1 38552U 12035B   22198.28413688  .00000051  00000+0  00000+0 0  9990
2 38552   1.5653  42.9153 0000827 109.6292 254.4060  1.00279895 36512
METOP-B                 
1 38771U 12049A   22198.63031883  .00000077  00000+0  55366-4 0  9998
2 38771  98.6941 257.9342 0000988  57.2022  97.7019 14.21496035510015
FENGYUN 3C              
1 39260U 13052A   22198.37350380  .00000076  00000+0  59487-4 0  9991
2 39260  98.4524 224.9711 0010875 182.6531 177.4587 14.15932010456153
METEOR-M 2              
1 40069U 14037A   22198.39569427  .00000003  00000+0  20584-4 0  9996
2 40069  98.4302 214.8332 0004646 228.4060 131.6725 14.20713218416119
HIMAWARI-8              
1 40267U 14060A   22198.56426686 -.00000287  00000+0  00000+0 0  9991
2 40267   0.0153 232.1346 0000813 261.2352 145.7694  1.00272869 28410
FENGYUN 2G              
1 40367U 14090A   22198.51740670 -.00000315  00000+0  00000+0 0  9994
2 40367   2.0101  89.2153 0000981 297.0194 194.8417  1.00279782 27654
METEOSAT-11 (MSG-4)     
1 40732U 15034A   22198.39771720 -.00000014  00000+0  00000+0 0  9991
2 40732   0.3467  63.0309 0001576  21.7734 354.0269  1.00262285 25677
ELEKTRO-L 2             
1 41105U 15074A   22198.13580779 -.00000130  00000+0  00000+0 0  9993
2 41105   3.0609  87.8122 0002000  61.0408 180.4277  1.00270424 24162
HIMAWARI-9              
1 41836U 16064A   22198.52560353 -.00000287  00000+0  00000+0 0  9996
2 41836   0.0199  47.7937 0001396  92.1190 125.3652  1.00270295 20845
GOES 16                 
1 41866U 16071A   22198.37623267 -.00000260  00000+0  00000+0 0  9995
2 41866   0.0538 236.2500 0000727 278.4963 200.6510  1.00270529 20761
FENGYUN 4A              
1 41882U 16077A   22198.63630490 -.00000340  00000+0  00000+0 0  9993
2 41882   0.0507  53.8293 0003925  77.5322 137.5966  1.00264185 20637
CYGFM05                 
1 41884U 16078A   22198.52973695  .00003182  00000+0  16099-3 0  9996
2 41884  34.9571  14.4990 0015251 356.8638   3.1976 15.16463790309354
CYGFM04                 
1 41885U 16078B   22198.57122173  .00003331  00000+0  16598-3 0  9999
2 41885  34.9502   3.3048 0013430  14.0548 346.0536 15.16997381309405
CYGFM02                 
1 41886U 16078C   22198.56122199  .00003202  00000+0  15943-3 0  9997
2 41886  34.9594   5.5844 0014205   8.0071 352.0865 15.17035718309488
CYGFM01                 
1 41887U 16078D   22198.53551039  .00003149  00000+0  16018-3 0  9998
2 41887  34.9538  16.9029 0015704 356.3065   3.7529 15.16271040309302
CYGFM08                 
1 41888U 16078E   22198.57668370  .00003195  00000+0  16038-3 0  9993
2 41888  34.9508   9.1573 0014692   8.3901 351.7054 15.16740626309441
CYGFM06                 
1 41889U 16078F   22198.54124196  .00002972  00000+0  14809-3 0  9990
2 41889  34.9590   4.3848 0013171   7.5239 352.5669 15.17050541309421
CYGFM07                 
1 41890U 16078G   22198.52693599  .00003098  00000+0  15458-3 0  9999
2 41890  34.9527   3.3161 0012898  11.8655 348.2359 15.16983495309403
CYGFM03                 
1 41891U 16078H   22198.52571279  .00003139  00000+0  15668-3 0  9999
2 41891  34.9559   3.8050 0012465   9.7061 350.3890 15.16976729309392
FENGYUN 3D              
1 43010U 17072A   22198.38580866  .00000039  00000+0  39886-4 0  9990
2 43010  98.8171 142.8389 0002102 142.2486 217.8840 14.19213304242018
NOAA 20                 
1 43013U 17073A   22198.53165928  .00000039  00000+0  39116-4 0  9995
2 43013  98.7168 136.6172 0001142  63.0624 297.0669 14.19561782241490
GOES 17                 
1 43226U 18022A   22198.46807861  .00000086  00000+0  00000+0 0  9994
2 43226   0.0820 252.8600 0000425 236.9274 196.6764  1.00270687 16070
FENGYUN 2H              
1 43491U 18050A   22198.44160088 -.00000142  00000+0  00000+0 0  9994
2 43491   1.2235  96.5990 0004417  38.1326  38.8616  1.00270769 15092
METOP-C                 
1 43689U 18087A   22198.56662897  .00000075  00000+0  54250-4 0  9996
2 43689  98.6823 258.0562 0001901 336.5361  23.5729 14.21496138191585
GEO-KOMPSAT-2A          
1 43823U 18100A   22198.52307472 -.00000356  00000+0  00000+0 0  9995
2 43823   0.0351 146.9764 0002232 315.8997 148.9954  1.00271138 13275
METEOR-M2 2             
1 44387U 19038A   22198.37170338 -.00000001  00000+0  18981-4 0  9993
2 44387  98.7243 158.9128 0001423 142.1629 217.9654 14.23714519157666
FENGYUN 3E              
1 49008U 21062A   22198.46482269  .00000006  00000+0  23510-4 0  9995
2 49008  98.7105 199.9494 0000670 255.8261 104.2843 14.19734669 53572
GOES 18                 
1 51850U 22021A   22198.03969698  .00000085  00000+0  00000+0 0  9999
2 51850   0.0504 107.0019 0002513 100.5266 324.6406  1.00269971  1437
